*******************************************************************************
 Revised: September 30, 2021           Uranus                               799
 
 PHYSICAL DATA:
  Mass x10^24 (kg)      = 86.813          Density (g/cm^3)       =  1.271
  Equat. radius (1 bar) = 25559+-4 km     Polar radius (km)      = 24973+-20
  Vol. Mean Radius (km) = 25362+-12       Flattening             =  0.02293
  Geometric Albedo      = 0.51
  Sid. rot. period (III)= 17.24+-0.01 h   Sid. rot. rate (rad/s) = -0.000101237
  Mean solar day, h     =~17.24           Rocky core mass (Mc/M) =  0.0012        
  GM (km^3/s^2)         = 5793951.256     GM 1-sigma (km^3/s^2)  = +-4.3 
  Equ. grav, ge (m/s^2) =  8.87           Pol. grav, gp (m/s^2)  =   9.19+-0.02
  Visual magnitude V(1,0)= -7.11
  Vis. mag. (opposition)=  +5.52          Obliquity to orbit     = 97.77 deg
  Sidereal orbit period = 84.0120465 y    Sidereal orbit period  = 30685.4 d
  Mean daily motion     = 0.01176904 dg/d Mean orbit velocity    =  6.8 km/s
  Atmos. temp. (1 bar)  =  76+-2 K        Escape speed, km/s     =  21.3           
  Aroche(ice)/Rp        =  2.20           Hill's sphere rad., Rp = 2700
                                 Perihelion   Aphelion    Mean
  Solar Constant (W/m^2)         4.09         3.39        3.71
  Maximum Planetary IR (W/m^2)   0.72         0.55        0.63
  Minimum Planetary IR (W/m^2)   0.72         0.55        0.63
*******************************************************************************


*******************************************************************************
Ephemeris / WWW_USER Fri Apr 12 09:21:59 2024 Pasadena, USA      / Horizons
*******************************************************************************
Target body name: Uranus (799)                    {source: ura116}
Center body name: Solar System Barycenter (0)     {source: DE441}
Center-site name: BODY CENTER
*******************************************************************************
Start time      : A.D. 2024-Jan-01 00:00:00.0000 TDB
Stop  time      : A.D. 2025-Jan-01 00:00:00.0000 TDB
Step-size       : 1 calendar months
*******************************************************************************
Center geodetic : 0.0, 0.0, 0.0                   {E-lon(deg),Lat(deg),Alt(km)}
Center cylindric: 0.0, 0.0, 0.0                   {E-lon(deg),Dxy(km),Dz(km)}
Center radii    : (undefined)
Output units    : KM-S
Calendar mode   : Gregorian
Output type     : LT CORRECTED cartesian states
Output format   : 3 (position, velocity, LT, range, range-rate)
Reference frame : Ecliptic of J2000.0
*******************************************************************************
JDTDB
   X     Y     Z
   VX    VY    VZ
   LT    RG    RR
*******************************************************************************
$$SOE
2460310.500000000 = A.D. 2024-Jan-01 00:00:00.0000 TDB [del_T=     69.183884 s]
 X = 1.834574778290128E+09 Y = 2.288418091869818E+09 Z =-1.526801948375988E+07
 VX=-5.363307238645053E+00 VY= 3.942270462274153E+00 VZ= 8.415494743780227E-02
 LT= 9.783586221917121E+03 RG= 2.933045361523467E+09 RR=-2.792694683312360E-01
2460341.500000000 = A.D. 2024-Feb-01 00:00:00.0000 TDB [del_T=     69.184747 s]
 X = 1.820174920882283E+09 Y = 2.298933799576139E+09 Z =-1.504245911732030E+07
 VX=-5.389379696217913E+00 VY= 3.909969165264990E+00 VZ= 8.436896540525307E-02
 LT= 9.781086507974171E+03 RG= 2.932295966136213E+09 RR=-2.803682230740161E-01
2460370.500000000 = A.D. 2024-Mar-01 00:00:00.0000 TDB [del_T=     69.185362 s]
 X = 1.806641754914652E+09 Y = 2.308692411569796E+09 Z =-1.483087081685603E+07
 VX=-5.413251267526396E+00 VY= 3.879545230226196E+00 VZ= 8.475675038091235E-02
 LT= 9.778740253825055E+03 RG= 2.931592576837757E+09 RR=-2.812076136779696E-01
2460401.500000000 = A.D. 2024-Apr-01 00:00:00.0000 TDB [del_T=     69.185640 s]
 X = 1.792109215787175E+09 Y = 2.319039472064128E+09 Z =-1.460414921228409E+07
 VX=-5.438437887192889E+00 VY= 3.846752837775374E+00 VZ= 8.466557200636737E-02
 LT= 9.776224060635763E+03 RG= 2.930838241096736E+09 RR=-2.820829358996187E-01
2460431.500000000 = A.D. 2024-May-01 00:00:00.0000 TDB [del_T=     69.185474 s]
 X = 1.777980787671214E+09 Y = 2.328969165596500E+09 Z =-1.438426045062923E+07
 VX=-5.463029343035667E+00 VY= 3.814994300977637E+00 VZ= 8.495434810774127E-02
 LT= 9.773780879275717E+03 RG= 2.930105793751468E+09 RR=-2.830543278459404E-01
2460462.500000000 = A.D. 2024-Jun-01 00:00:00.0000 TDB [del_T=     69.184909 s]
 X = 1.763315137537758E+09 Y = 2.339143017947959E+09 Z =-1.415650577987564E+07
 VX=-5.488130033304453E+00 VY= 3.781971901505563E+00 VZ= 8.516531243270276E-02
 LT= 9.771248046757970E+03 RG= 2.929346469665270E+09 RR=-2.840002877338034E-01
2460492.500000000 = A.D. 2024-Jul-01 00:00:00.0000 TDB [del_T=     69.184129 s]
 X = 1.749058859774460E+09 Y = 2.348904246857388E+09 Z =-1.393553198106956E+07
 VX=-5.511962021584976E+00 VY= 3.749834487046474E+00 VZ= 8.566644193093609E-02
 LT= 9.768789012557092E+03 RG= 2.928609269757883E+09 RR=-2.847555230431841E-01
2460523.500000000 = A.D. 2024-Aug-01 00:00:00.0000 TDB [del_T=     69.183292 s]
 X = 1.734262177141639E+09 Y = 2.358903115889250E+09 Z =-1.370671262272763E+07
 VX=-5.536777985829552E+00 VY= 3.716413760174632E+00 VZ= 8.525864675974715E-02
 LT= 9.766240104111283E+03 RG= 2.927845126229697E+09 RR=-2.857846726654789E-01
2460554.500000000 = A.D. 2024-Sep-01 00:00:00.0000 TDB [del_T=     69.182644 s]
 X = 1.719399522106989E+09 Y = 2.368812420007377E+09 Z =-1.347738025731301E+07
 VX=-5.561284897029315E+00 VY= 3.682925581774090E+00 VZ= 8.574477331144092E-02
 LT= 9.763682966924247E+03 RG= 2.927078515786952E+09 RR=-2.866565910593863E-01
2460584.500000000 = A.D. 2024-Oct-01 00:00:00.0000 TDB [del_T=     69.182366 s]
 X = 1.704954104769925E+09 Y = 2.378316343530000E+09 Z =-1.325496599071610E+07
 VX=-5.584966114865884E+00 VY= 3.650325363095025E+00 VZ= 8.572805236943104E-02
 LT= 9.761200751426142E+03 RG= 2.926334366301490E+09 RR=-2.876017055333472E-01
2460615.500000000 = A.D. 2024-Nov-01 00:00:00.0000 TDB [del_T=     69.182527 s]
 X = 1.689963330267548E+09 Y = 2.388048075947190E+09 Z =-1.302457490238833E+07
 VX=-5.608827102722411E+00 VY= 3.616470472820726E+00 VZ= 8.633231802005481E-02
 LT= 9.758628003101598E+03 RG= 2.925563075757459E+09 RR=-2.883312357216692E-01
2460645.500000000 = A.D. 2024-Dec-01 00:00:00.0000 TDB [del_T=     69.183084 s]
 X = 1.675394941245730E+09 Y = 2.397379309365556E+09 Z =-1.280121522447908E+07
 VX=-5.632146693772641E+00 VY= 3.583530646832908E+00 VZ= 8.611129958328601E-02
 LT= 9.756130894178355E+03 RG= 2.924814461335467E+09 RR=-2.892799500173659E-01
2460676.500000000 = A.D. 2025-Jan-01 00:00:00.0000 TDB [del_T=     69.183919 s]
 X = 1.660278051714827E+09 Y = 2.406931749189692E+09 Z =-1.256991572498775E+07
 VX=-5.655838781231841E+00 VY= 3.549375639762621E+00 VZ= 8.652540368211570E-02
 LT= 9.753542855275346E+03 RG= 2.924038586791334E+09 RR=-2.900945617598051E-01
$$EOE
*******************************************************************************
 
TIME

  Barycentric Dynamical Time ("TDB" or T_eph) output was requested. This
continuous coordinate time is equivalent to the relativistic proper time
of a clock at rest in a reference frame co-moving with the solar system
barycenter but outside the system's gravity well. It is the independent
variable in the solar system relativistic equations of motion.

  TDB runs at a uniform rate of one SI second per second and is independent
of irregularities in Earth's rotation.
 
CALENDAR SYSTEM

  Calendar dates are given in the modern Gregorian system, extended prior to
its 1582-Oct-15 adoption. The Gregorian calendar more closely corresponds to
physical Earth seasons and orbital motion, but can differ by up to 10 days with
historical records made under the prior Julian calendar, more if the Julian
calendar was extended prior to its 45-Jan-1 BC adoption to label the historical
event. Select "mixed" calendar mode if correlation with historical dates prior
to A.D. 1582 is important.

REFERENCE FRAME AND COORDINATES

  Ecliptic at the standard reference epoch

    Reference epoch: J2000.0
    X-Y plane: adopted Earth orbital plane at the reference epoch
               Note: IAU76 obliquity of 84381.448 arcseconds wrt ICRF X-Y plane
    X-axis   : ICRF
    Z-axis   : perpendicular to the X-Y plane in the directional (+ or -) sense
               of Earth's north pole at the reference epoch.

  Symbol meaning:

    JDTDB    Julian Day Number, Barycentric Dynamical Time
    del_T    Time-scale conversion difference TDB - UT (s)
      X      X-component of position vector (km)
      Y      Y-component of position vector (km)
      Z      Z-component of position vector (km)
      VX     X-component of velocity vector (km/sec)                           
      VY     Y-component of velocity vector (km/sec)                           
      VZ     Z-component of velocity vector (km/sec)                           
      LT     One-way down-leg Newtonian light-time (sec)
      RG     Range; distance from coordinate center (km)
      RR     Range-rate; radial velocity wrt coord. center (km/sec)

ABERRATIONS AND CORRECTIONS

 States have been corrected for Newtonian down-leg (receive) light-time
 displacement.

Computations by ...

    Solar System Dynamics Group, Horizons On-Line Ephemeris System
    4800 Oak Grove Drive, Jet Propulsion Laboratory
    Pasadena, CA  91109   USA

    General site: https://ssd.jpl.nasa.gov/
    Mailing list: https://ssd.jpl.nasa.gov/email_list.html
    System news : https://ssd.jpl.nasa.gov/horizons/news.html
    User Guide  : https://ssd.jpl.nasa.gov/horizons/manual.html
    Connect     : browser        https://ssd.jpl.nasa.gov/horizons/app.html#/x
                  API            https://ssd-api.jpl.nasa.gov/doc/horizons.html
                  command-line   telnet ssd.jpl.nasa.gov 6775
                  e-mail/batch   https://ssd.jpl.nasa.gov/ftp/ssd/hrzn_batch.txt
                  scripts        https://ssd.jpl.nasa.gov/ftp/ssd/SCRIPTS
    Author      : Jon.D.Giorgini@jpl.nasa.gov
*******************************************************************************
